ONEWEB-0055             
1 45443U 20020V   21244.84646548 -.00000368  00000-0 -10742-2 0  9997
2 45443  87.8965   8.8218 0001654  98.6407 261.4908 13.11418984 73338
ONEWEB-0093             
1 45444U 20020W   21244.89880346 -.00000254  00000-0 -75298-3 0  9991
2 45444  87.8952   8.8604 0001757  98.7629 261.3698 13.11414894 73404
ONEWEB-0029             
1 45445U 20020X   21244.84428348 -.00000434  00000-0 -12594-2 0  9996
2 45445  87.8957   8.8507 0001894  86.1126 274.0219 13.11418327 73378
ONEWEB-0068             
1 45446U 20020Y   21244.89008176  .00000146  00000-0  37504-3 0  9992
2 45446  87.8952   8.8604 0001407  96.3297 263.7991 13.11415455 73320
ONEWEB-0046             
1 45447U 20020Z   21244.88573526  .00000535  00000-0  14745-2 0  9991
2 45447  87.8953   8.8666 0002114  95.6418 264.4951 13.11414337 73336
ONEWEB-0063             
1 45448U 20020AA  21244.83994244 -.00000556  00000-0 -16043-2 0  9999
2 45448  87.8950   8.8779 0002163  95.3245 264.8129 13.11416712 73417
ONEWEB-0019             
1 45449U 20020AB  21244.89227109  .00000030  00000-0  48245-4 0  9991
2 45449  87.8956   8.8416 0001796 103.1445 256.9884 13.11414101 73266
ONEWEB-0094             
1 45450U 20020AC  21244.82477359  .00000069  00000-0  14554-3 0  9997
2 45450  87.9173 353.6600 0001658 103.1974 256.9342 13.17651070 75939
ONEWEB-0087             
1 45451U 20020AD  21244.84864533 -.00000286  00000-0 -84133-3 0  9997
2 45451  87.8964   8.8780 0001308  78.6808 281.4467 13.11418746 73304
ONEWEB-0082             
1 45452U 20020AE  21244.85084726 -.00000242  00000-0 -71848-3 0  9998
2 45452  87.8956   8.8338 0001355  89.1434 270.9849 13.11417898 73392
ONEWEB-0050             
1 45453U 20020AF  21244.75753643  .00000574  00000-0  49945-4 0  9999
2 45453  87.5468 331.6568 0026262 175.4739 184.6734 14.94698948 79143
ONEWEB-0034             
1 45454U 20020AG  21244.86829467  .00000500  00000-0  13760-2 0  9993
2 45454  87.8953   8.8543 0001855  91.8639 268.2701 13.11418411 73312
ONEWEB-0060             
1 45455U 20020AH  21244.87699647  .00000525  00000-0  14466-2 0  9991
2 45455  87.8955   8.8517 0001802  94.6826 265.4508 13.11416452 73279
ONEWEB-0086             
1 45456U 20020AJ  21244.89660586 -.00000181  00000-0 -54514-3 0  9993
2 45456  87.8953   8.8453 0001485  93.3120 266.8177 13.11414903 73330
ONEWEB-0088             
1 45457U 20020AK  21244.87046110  .00000496  00000-0  13642-2 0  9996
2 45457  87.8950   8.8753 0001867  90.7615 269.3727 13.11416604 73266
ONEWEB-0102             
1 47258U 20100A   21244.79831465  .00000589  00000-0  16006-2 0  9992
2 47258  87.8949 338.5181 0001539 104.1955 255.9345 13.12441609 35265
ONEWEB-0109             
1 47259U 20100B   21244.80889755  .00000021  00000-0  23573-4 0  9990
2 47259  87.8922 338.3539 0001690 113.3439 246.7867 13.12440331 35098
ONEWEB-0110             
1 47260U 20100C   21244.83005156 -.00000441  00000-0 -12605-2 0  9990
2 47260  87.8970 338.4360 0001588 107.4497 252.6805 13.12439880 35264
ONEWEB-0111             
1 47261U 20100D   21244.78557652  .00000373  00000-0  10019-2 0  9997
2 47261  87.8974 338.4717 0001597  99.9320 260.1988 13.12446533 35095
ONEWEB-0114             
1 47262U 20100E   21244.81735172 -.00000308  00000-0 -89254-3 0  9995
2 47262  87.8897 338.3238 0001899 110.6036 249.5296 13.12441360 35059
ONEWEB-0117             
1 47263U 20100F   21244.81099872 -.00000063  00000-0 -21105-3 0  9995
2 47263  87.8924 338.4334 0001716 104.2265 255.9054 13.12439657 35060
ONEWEB-0118             
1 47264U 20100G   21244.76229559 -.00000296  00000-0 -85879-3 0  9993
2 47264  87.8958 338.4627 0001930 107.1866 252.9473 13.12446655 35259
ONEWEB-0119             
1 47265U 20100H   21244.79194892  .00000421  00000-0  11345-2 0  9992
2 47265  87.8947 338.5273 0001687 102.5786 257.5532 13.12439765 35234
ONEWEB-0120             
1 47266U 20100J   21244.82158440 -.00000335  00000-0 -96734-3 0  9998
2 47266  87.9021 338.4057 0001804 111.1303 249.0019 13.12442070 35262
ONEWEB-0121             
1 47267U 20100K   21244.80678075  .00000066  00000-0  14773-3 0  9990
2 47267  87.9029 338.4611 0001575  97.1107 263.0201 13.12440395 35174
ONEWEB-0122             
1 47268U 20100L   21244.80040613  .00000248  00000-0  65526-3 0  9996
2 47268  87.8939 338.4250 0002093  93.2366 266.9002 13.12435910 35081
ONEWEB-0123             
1 47269U 20100M   21244.79406402  .00000384  00000-0  10308-2 0  9995
2 47269  87.8963 338.4877 0001859 103.8331 256.3005 13.12445698 35229
ONEWEB-0124             
1 47270U 20100N   21244.77925731  .00000246  00000-0  64981-3 0  9990
2 47270  87.8933 338.4420 0001748  98.9409 261.1917 13.12442615 35108
ONEWEB-0125             
1 47271U 20100P   21244.75806731 -.00000400  00000-0 -11473-2 0  9998
2 47271  87.9007 338.4826 0001859  99.0341 261.0998 13.12444333 35165
ONEWEB-0126             
1 47272U 20100Q   21244.78348791  .00000344  00000-0  92124-3 0  9997
2 47272  87.8964 338.5363 0001687 110.7286 249.4023 13.12444151 35237
ONEWEB-0127             
1 47273U 20100R   21244.82370064 -.00000439  00000-0 -12544-2 0  9995
2 47273  87.8939 338.4384 0001829 111.2143 248.9181 13.12442149 35265
ONEWEB-0128             
1 47274U 20100S   21244.76654306 -.00000178  00000-0 -52976-3 0  9997
2 47274  87.8961 338.4505 0001579 102.7590 257.3715 13.12445328 35279
ONEWEB-0129             
1 47275U 20100T   21244.82581818 -.00000493  00000-0 -14045-2 0  9996
2 47275  87.8971 338.3691 0003069 147.1885 212.9435 13.12442921 35218
ONEWEB-0130             
1 47276U 20100U   21244.77500058  .00000113  00000-0  27897-3 0  9995
2 47276  87.8996 338.4469 0001390 111.3370 248.7907 13.12443603 35171
ONEWEB-0131             
1 47277U 20100V   21244.77077672 -.00000004  00000-0 -45302-4 0  9990
2 47277  87.8996 338.3953 0001928  97.2225 262.9123 13.12443223 35218
ONEWEB-0132             
1 47278U 20100W   21244.80464293  .00000130  00000-0  32706-3 0  9995
2 47278  87.8956 338.5233 0002057 104.2091 255.9267 13.12438838 35118
ONEWEB-0133             
1 47279U 20100X   21244.81948201 -.00000352  00000-0 -10125-2 0  9991
2 47279  87.8980 338.3981 0001688 108.7955 251.3357 13.12441774 35271
ONEWEB-0134             
1 47280U 20100Y   21244.78772553  .00000496  00000-0  13435-2 0  9998
2 47280  87.8948 338.4532 0001738  92.1200 268.0127 13.12442777 35246
ONEWEB-0135             
1 47281U 20100Z   21244.75593024 -.00000387  00000-0 -11119-2 0  9998
2 47281  87.8954 338.4443 0001675 110.7488 249.3820 13.12440696 35262
ONEWEB-0136             
1 47282U 20100AA  21244.77704444  .00012466  00000-0  34567-1 0  9991
2 47282  87.8976 338.3903 0001456 115.6093 244.5186 13.12446436 35192
ONEWEB-0137             
1 47283U 20100AB  21244.81521917 -.00000170  00000-0 -50745-3 0  9998
2 47283  87.8936 338.5127 0002148 109.4091 250.7270 13.12437843 35103
ONEWEB-0138             
1 47284U 20100AC  21244.78983383  .00000434  00000-0  11714-2 0  9997
2 47284  87.8940 338.5038 0001685 109.3337 250.7974 13.12443808 35184
ONEWEB-0139             
1 47285U 20100AD  21244.76017374 -.00000350  00000-0 -10073-2 0  9990
2 47285  87.8995 338.5134 0001584 102.2937 257.8369 13.12442739 35254
ONEWEB-0140             
1 47286U 20100AE  21244.78134599  .00000312  00000-0  83123-3 0  9995
2 47286  87.8970 338.4841 0001471 109.9005 250.2282 13.12445934 35225
ONEWEB-0141             
1 47287U 20100AF  21244.77288660  .00000023  00000-0  27371-4 0  9997
2 47287  87.8945 338.4957 0001726 107.6996 252.4321 13.12442877 35202
ONEWEB-0142             
1 47288U 20100AG  21244.79618111  .00000373  00000-0  10009-2 0  9994
2 47288  87.8972 338.5572 0002169 104.3030 255.8339 13.12441078 35200
ONEWEB-0143             
1 47289U 20100AH  21244.82792917 -.00000438  00000-0 -12540-2 0  9992
2 47289  87.8991 338.4132 0001742 104.1615 255.9707 13.12441365 35182
ONEWEB-0144             
1 47290U 20100AJ  21244.80255158  .00000188  00000-0  48708-3 0  9999
2 47290  87.8918 338.3358 0001596  96.0322 264.0988 13.12440196 35108
ONEWEB-0145             
1 47291U 20100AK  21244.76863841 -.00000101  00000-0 -31594-3 0  9991
2 47291  87.8970 338.4661 0001654 109.1920 250.9388 13.12445814 35290
ONEWEB-0146             
1 47292U 20100AL  21244.76442073 -.00000212  00000-0 -62388-3 0  9990
2 47292  87.8955 338.5038 0001629 107.2425 252.8882 13.12444928 35200
ONEWEB-0147             
1 47293U 20100AM  21244.81311747 -.00000151  00000-0 -45638-3 0  9991
2 47293  87.8972 338.4776 0001362 138.8533 221.2698 13.12443594 35104
ONEWEB-0115             
1 48042U 21025A   21244.91668981 -.00011499  00000-0 -31563-1 0  9994
2 48042  87.8928 307.8504 0002022  86.2567 310.4109 13.13471902  3281
ONEWEB-0152             
1 48043U 21025B   21244.91668981 -.00010721  00000-0 -29423-1 0  9994
2 48043  87.8894 307.8311 0001803  94.5646 242.0680 13.13476712  3284
ONEWEB-0153             
1 48044U 21025C   21244.91668981 -.00011893  00000-0 -32644-1 0  9995
2 48044  87.9032 307.9657 0002431  94.6663 352.0212 13.13468460  3286
ONEWEB-0154             
1 48045U 21025D   21244.91668981 -.00011726  00000-0 -32185-1 0  9991
2 48045  87.8872 307.8665 0002367 108.0308 348.6586 13.13468553  3288
ONEWEB-0116             
1 48046U 21025E   21244.91668981 -.00010318  00000-0 -28321-1 0  9995
2 48046  87.8882 307.8491 0002175  84.8834 171.7088 13.13467811  3276
ONEWEB-0150             
1 48047U 21025F   21244.91668981 -.00011500  00000-0 -31565-1 0  9994
2 48047  87.8886 307.9154 0002590 102.1954 284.4985 13.13471910  3280
ONEWEB-0107             
1 48048U 21025G   21244.91668981 -.00011264  00000-0 -30917-1 0  9992
2 48048  87.8913 307.8467 0002109 115.8318 260.8556 13.13472345  3284
ONEWEB-0101             
1 48049U 21025H   21244.91668981 -.00011238  00000-0 -30847-1 0  9996
2 48049  87.8892 307.9459 0002183 102.2472  74.3594 13.13469690  3274
